{"type": "FeatureCollection", "features": [ {"type": "Feature", "properties": {"norad_id": 39122, "name": "EUTELSAT 117 WEST A", "group": "eutelsat", "lat": -0.03753789246925438, "lon": -34.98824638260225, "alt_km": 35778.8255690252, "timestamp": "2025-12-18T23:35:48.718749+00:00", "meta": {"OBJECT_NAME": "EUTELSAT 117 WEST A", "OBJECT_ID": "2013-012A", "EPOCH": "2025-12-18T14:08:49.351776", "MEAN_MOTION": 1.00272916, "ECCENTRICITY": 0.00027086, "INCLINATION": 0.0281, "RA_OF_ASC_NODE": 46.0538, "ARG_OF_PERICENTER": 226.1705, "MEAN_ANOMALY": 270.6367, "EPHEMERIS_TYPE": 0, "CLASSIFICATION_TYPE": "U", "NORAD_CAT_ID": 39122, "ELEMENT_SET_NO": 999, "REV_AT_EPOCH": 4662, "BSTAR": 0, "MEAN_MOTION_DOT": 1.2e-07, "MEAN_MOTION_DDOT": 0}, "tle": {"line1": "1 39122U 13012A   25352.58946009  .00000012  00000+0  00000+0 0  9993", "line2": "2 39122   0.0281  46.0538 0002708 226.1705 270.6367  1.00272916 46623"}}, "geometry": {"type": "Point", "coordinates": [-34.98824638260225, -0.03753789246925438]}}, {"type": "Feature", "properties": {"norad_id": 39163, "name": "EUTELSAT 7B", "group": "eutelsat", "lat": 0.09205560125544915, "lon": 88.82195496204386, "alt_km": 35797.47980860948, "timestamp": "2025-12-18T23:35:48.718762+00:00", "meta": {"OBJECT_NAME": "EUTELSAT 7B", "OBJECT_ID": "2013-022A", "EPOCH": "2025-12-18T15:02:24.148896", "MEAN_MOTION": 1.00270359, "ECCENTRICITY": 0.00042783, "INCLINATION": 0.0652, "RA_OF_ASC_NODE": 355.2817, "ARG_OF_PERICENTER": 325.969, "MEAN_ANOMALY": 358.8421, "EPHEMERIS_TYPE": 0, "CLASSIFICATION_TYPE": "U", "NORAD_CAT_ID": 39163, "ELEMENT_SET_NO": 999, "REV_AT_EPOCH": 4613, "BSTAR": 0, "MEAN_MOTION_DOT": 7.3e-07, "MEAN_MOTION_DDOT": 0}, "tle": {"line1": "1 39163U 13022A   25352.62666839  .00000073  00000+0  00000+0 0  9991", "line2": "2 39163   0.0652 355.2817 0004278 325.9690 358.8421  1.00270359 46135"}}, "geometry": {"type": "Point", "coordinates": [88.82195496204386, 0.09205560125544915]}}, {"type": "Feature", "properties": {"norad_id": 39612, "name": "EXPRESS-AT1", "group": "eutelsat", "lat": 0.0015887054776587187, "lon": 137.77758452736953, "alt_km": 35783.80307171416, "timestamp": "2025-12-18T23:35:48.718774+00:00", "meta": {"OBJECT_NAME": "EXPRESS-AT1", "OBJECT_ID": "2014-010A", "EPOCH": "2025-12-18T15:16:22.810368", "MEAN_MOTION": 1.00271077, "ECCENTRICITY": 5.902e-05, "INCLINATION": 0.0176, "RA_OF_ASC_NODE": 298.3919, "ARG_OF_PERICENTER": 189.3495, "MEAN_ANOMALY": 244.8473, "EPHEMERIS_TYPE": 0, "CLASSIFICATION_TYPE": "U", "NORAD_CAT_ID": 39612, "ELEMENT_SET_NO": 999, "REV_AT_EPOCH": 4300, "BSTAR": 0, "MEAN_MOTION_DOT": 1.04e-06, "MEAN_MOTION_DDOT": 0}, "tle": {"line1": "1 39612U 14010A   25352.63637512  .00000104  00000+0  00000+0 0  9990", "line2": "2 39612   0.0176 298.3919 0000590 189.3495 244.8473  1.00271077 43005"}}, "geometry": {"type": "Point", "coordinates": [137.77758452736953, 0.0015887054776587187]}}, {"type": "Feature", "properties": {"norad_id": 39613, "name": "EXPRESS-AT2", "group": "eutelsat", "lat": -0.02875161965906466, "lon": -138.37388771655816, "alt_km": 35784.259785569666, "timestamp": "2025-12-18T23:35:48.718787+00:00", "meta": {"OBJECT_NAME": "EXPRESS-AT2", "OBJECT_ID": "2014-010B", "EPOCH": "2025-12-18T15:40:20.515008", "MEAN_MOTION": 1.00272078, "ECCENTRICITY": 9.981e-05, "INCLINATION": 0.0134, "RA_OF_ASC_NODE": 295.299, "ARG_OF_PERICENTER": 351.5774, "MEAN_ANOMALY": 175.5782, "EPHEMERIS_TYPE": 0, "CLASSIFICATION_TYPE": "U", "NORAD_CAT_ID": 39613, "ELEMENT_SET_NO": 999, "REV_AT_EPOCH": 4269, "BSTAR": 0, "MEAN_MOTION_DOT": -2.56e-06, "MEAN_MOTION_DDOT": 0}, "tle": {"line1": "1 39613U 14010B   25352.65301522 -.00000256  00000+0  00000+0 0  9991", "line2": "2 39613   0.0134 295.2990 0000998 351.5774 175.5782  1.00272078 42699"}}, "geometry": {"type": "Point", "coordinates": [-138.37388771655816, -0.02875161965906466]}}, {"type": "Feature", "properties": {"norad_id": 39773, "name": "EUTELSAT 3B", "group": "eutelsat", "lat": 0.08676807880229946, "lon": 84.84393488369926, "alt_km": 35800.92443437925, "timestamp": "2025-12-18T23:35:48.718805+00:00", "meta": {"OBJECT_NAME": "EUTELSAT 3B", "OBJECT_ID": "2014-030A", "EPOCH": "2025-12-18T13:18:34.094592", "MEAN_MOTION": 1.00272203, "ECCENTRICITY": 0.00042037, "INCLINATION": 0.0602, "RA_OF_ASC_NODE": 2.0481, "ARG_OF_PERICENTER": 230.0847, "MEAN_ANOMALY": 58.0141, "EPHEMERIS_TYPE": 0, "CLASSIFICATION_TYPE": "U", "NORAD_CAT_ID": 39773, "ELEMENT_SET_NO": 999, "REV_AT_EPOCH": 4225, "BSTAR": 0, "MEAN_MOTION_DOT": 4.5e-07, "MEAN_MOTION_DDOT": 0}, "tle": {"line1": "1 39773U 14030A   25352.55456128  .00000045  00000+0  00000+0 0  9997", "line2": "2 39773   0.0602   2.0481 0004203 230.0847  58.0141  1.00272203 42256"}}, "geometry": {"type": "Point", "coordinates": [84.84393488369926, 0.08676807880229946]}}, {"type": "Feature", "properties": {"norad_id": 40425, "name": "EUTELSAT 115 WEST B", "group": "eutelsat", "lat": -0.005592246169221183, "lon": -33.11637004795333, "alt_km": 35784.708138791626, "timestamp": "2025-12-18T23:35:48.718831+00:00", "meta": {"OBJECT_NAME": "EUTELSAT 115 WEST B", "OBJECT_ID": "2015-010B", "EPOCH": "2025-12-18T14:27:42.472224", "MEAN_MOTION": 1.00271646, "ECCENTRICITY": 3.765e-05, "INCLINATION": 0.0424, "RA_OF_ASC_NODE": 168.3166, "ARG_OF_PERICENTER": 130.9082, "MEAN_ANOMALY": 250.267, "EPHEMERIS_TYPE": 0, "CLASSIFICATION_TYPE": "U", "NORAD_CAT_ID": 40425, "ELEMENT_SET_NO": 999, "REV_AT_EPOCH": 3958, "BSTAR": 0, "MEAN_MOTION_DOT": 0, "MEAN_MOTION_DDOT": 0}, "tle": {"line1": "1 40425U 15010B   25352.60257491  .00000000  00000+0  00000+0 0  9991", "line2": "2 40425   0.0424 168.3166 0000376 130.9082 250.2670  1.00271646 39581"}}, "geometry": {"type": "Point", "coordinates": [-33.11637004795333, -0.005592246169221183]}}, {"type": "Feature", "properties": {"norad_id": 40875, "name": "EUTELSAT 8 WEST B", "group": "eutelsat", "lat": 0.08976876639986571, "lon": 73.80557786561361, "alt_km": 35803.674652294554, "timestamp": "2025-12-18T23:35:48.718852+00:00", "meta": {"OBJECT_NAME": "EUTELSAT 8 WEST B", "OBJECT_ID": "2015-039B", "EPOCH": "2025-12-18T13:15:11.917728", "MEAN_MOTION": 1.00271876, "ECCENTRICITY": 0.00043101, "INCLINATION": 0.0635, "RA_OF_ASC_NODE": 353.4802, "ARG_OF_PERICENTER": 275.5286, "MEAN_ANOMALY": 9.217, "EPHEMERIS_TYPE": 0, "CLASSIFICATION_TYPE": "U", "NORAD_CAT_ID": 40875, "ELEMENT_SET_NO": 999, "REV_AT_EPOCH": 3784, "BSTAR": 0, "MEAN_MOTION_DOT": -4e-07, "MEAN_MOTION_DDOT": 0}, "tle": {"line1": "1 40875U 15039B   25352.55222127 -.00000040  00000+0  00000+0 0  9998", "line2": "2 40875   0.0635 353.4802 0004310 275.5286   9.2170  1.00271876 37841"}}, "geometry": {"type": "Point", "coordinates": [73.80557786561361, 0.08976876639986571]}}, {"type": "Feature", "properties": {"norad_id": 41310, "name": "EUTELSAT 9B", "group": "eutelsat", "lat": 0.042746383633877616, "lon": 90.77300032167233, "alt_km": 35804.81743863868, "timestamp": "2025-12-18T23:35:48.718865+00:00", "meta": {"OBJECT_NAME": "EUTELSAT 9B", "OBJECT_ID": "2016-005A", "EPOCH": "2025-12-18T13:20:18.927168", "MEAN_MOTION": 1.0027214, "ECCENTRICITY": 0.00044623, "INCLINATION": 0.0585, "RA_OF_ASC_NODE": 70.4318, "ARG_OF_PERICENTER": 203.8927, "MEAN_ANOMALY": 22.1605, "EPHEMERIS_TYPE": 0, "CLASSIFICATION_TYPE": "U", "NORAD_CAT_ID": 41310, "ELEMENT_SET_NO": 999, "REV_AT_EPOCH": 3630, "BSTAR": 0, "MEAN_MOTION_DOT": 8.7e-07, "MEAN_MOTION_DDOT": 0}, "tle": {"line1": "1 41310U 16005A   25352.55577462  .00000087  00000+0  00000+0 0  9992", "line2": "2 41310   0.0585  70.4318 0004462 203.8927  22.1605  1.00272140 36304"}}, "geometry": {"type": "Point", "coordinates": [90.77300032167233, 0.042746383633877616]}}, {"type": "Feature", "properties": {"norad_id": 41382, "name": "EUTELSAT 65 WEST A", "group": "eutelsat", "lat": 0.05548795668420922, "lon": 16.58487121675979, "alt_km": 35788.24620472749, "timestamp": "2025-12-18T23:35:48.718885+00:00", "meta": {"OBJECT_NAME": "EUTELSAT 65 WEST A", "OBJECT_ID": "2016-014A", "EPOCH": "2025-12-18T12:22:31.161216", "MEAN_MOTION": 1.0026978, "ECCENTRICITY": 0.00023046, "INCLINATION": 0.0555, "RA_OF_ASC_NODE": 327.9484, "ARG_OF_PERICENTER": 309.5717, "MEAN_ANOMALY": 290.2696, "EPHEMERIS_TYPE": 0, "CLASSIFICATION_TYPE": "U", "NORAD_CAT_ID": 41382, "ELEMENT_SET_NO": 999, "REV_AT_EPOCH": 3572, "BSTAR": 0, "MEAN_MOTION_DOT": -2.51e-06, "MEAN_MOTION_DDOT": 0}, "tle": {"line1": "1 41382U 16014A   25352.51563844 -.00000251  00000+0  00000+0 0  9990", "line2": "2 41382   0.0555 327.9484 0002304 309.5717 290.2696  1.00269780 35727"}}, "geometry": {"type": "Point", "coordinates": [16.58487121675979, 0.05548795668420922]}}, {"type": "Feature", "properties": {"norad_id": 41589, "name": "EUTELSAT 117 WEST B", "group": "eutelsat", "lat": -0.005984172949168205, "lon": -35.207297162154326, "alt_km": 35785.18173677387, "timestamp": "2025-12-18T23:35:48.718897+00:00", "meta": {"OBJECT_NAME": "EUTELSAT 117 WEST B", "OBJECT_ID": "2016-038B", "EPOCH": "2025-12-18T14:08:49.387200", "MEAN_MOTION": 1.00271024, "ECCENTRICITY": 3.208e-05, "INCLINATION": 0.043, "RA_OF_ASC_NODE": 169.4138, "ARG_OF_PERICENTER": 119.9849, "MEAN_ANOMALY": 253.2688, "EPHEMERIS_TYPE": 0, "CLASSIFICATION_TYPE": "U", "NORAD_CAT_ID": 41589, "ELEMENT_SET_NO": 999, "REV_AT_EPOCH": 3485, "BSTAR": 0, "MEAN_MOTION_DOT": 1.4e-07, "MEAN_MOTION_DDOT": 0}, "tle": {"line1": "1 41589U 16038B   25352.58946050  .00000014  00000+0  00000+0 0  9992", "line2": "2 41589   0.0430 169.4138 0000320 119.9849 253.2688  1.00271024 34855"}}, "geometry": {"type": "Point", "coordinates": [-35.207297162154326, -0.005984172949168205]}}]}